[Satellite]
VERSION=1.1
NAME=SL-14 R/B
NICKNAME=SL-14 R/B
TLE1=1 16496U 86006B   19317.48294807  .00000062  00000-0  45256-5 0  9994
TLE2=2 16496  82.5248 265.4208 0020499  50.3744  85.2820 14.84123334827769
STATUS=0
